*******************************************************************************
 Revised: Dec 22, 2022           2015-056B Spacecraft / (Earth)         -140947
 
 Discarded Centaur Booster 2015-056B
*******************************************************************************


*******************************************************************************
Ephemeris / WWW_USER Thu Dec 22 14:37:01 2022 Pasadena, USA      / Horizons
*******************************************************************************
Target body name: 2015-056B (spacecraft) (-140947) {source: 2015-056B}
Center body name: Earth (399)                     {source: DE441}
Center-site name: BODY CENTER
*******************************************************************************
Start time      : A.D. 2022-Dec-09 00:00:00.0000 TDB
Stop  time      : A.D. 2023-Jan-04 00:00:00.0000 TDB
Step-size       : 1440 minutes
*******************************************************************************
Center geodetic : 0.00000000,0.00000000,0.0000000 {E-lon(deg),Lat(deg),Alt(km)}
Center cylindric: 0.00000000,0.00000000,0.0000000 {E-lon(deg),Dxy(km),Dz(km)}
Center radii    : 6378.1 x 6378.1 x 6356.8 km     {Equator, meridian, pole}    
Keplerian GM    : 3.9860043550702260E+05 km^3/s^2
Output units    : KM-S, deg, Julian Day Number (Tp)
Output type     : GEOMETRIC osculating elements
Output format   : 10
EOP file        : eop.221220.p230315
EOP coverage    : DATA-BASED 1962-JAN-20 TO 2022-DEC-20. PREDICTS-> 2023-MAR-14
Reference frame : ICRF
*******************************************************************************
            JDTDB,            Calendar Date (TDB),                     EC,                     QR,                     IN,                     OM,                      W,                     Tp,                      N,                     MA,                     TA,                      A,                     AD,                     PR,
**************************************************************************************************************************************************************************************************************************************************************************************************************************************************
$$SOE
2459922.500000000, A.D. 2022-Dec-09 00:00:00.0000,  5.905998856406108E-01,  1.071998665669253E+04,  2.634034101625794E+01,  2.888902136004907E+02,  1.373073262944575E+02,  2.459922475156232E+06,  8.537330398287274E-03,  1.832539277208629E+01,  7.151851186891311E+01,  2.618462057214294E+04,  4.164925448759334E+04,  4.216774837157782E+04,
2459923.500000000, A.D. 2022-Dec-10 00:00:00.0000,  5.905429566126068E-01,  1.072144499456895E+04,  2.633424739291516E+01,  2.887445314721590E+02,  1.375675599070559E+02,  2.459923451386228E+06,  8.537369010739851E-03,  3.585891227313406E+01,  1.050615285150425E+02,  2.618454162095154E+04,  4.164763824733411E+04,  4.216755765706352E+04,
2459924.500000000, A.D. 2022-Dec-11 00:00:00.0000,  5.904798780144633E-01,  1.072341694467046E+04,  2.632951062187777E+01,  2.885966094547982E+02,  1.378280987735289E+02,  2.459924427609766E+06,  8.536986547580210E-03,  5.339472065597828E+01,  1.238863891728291E+02,  2.618532367268925E+04,  4.164723040070803E+04,  4.216944679408464E+04,
2459925.500000000, A.D. 2022-Dec-12 00:00:00.0000,  5.904064273050622E-01,  1.072559560734427E+04,  2.632532263478199E+01,  2.884482337426070E+02,  1.380860813598721E+02,  2.459925403827776E+06,  8.536681703878867E-03,  7.093367970120715E+01,  1.365936634191306E+02,  2.618594705179277E+04,  4.164629849624126E+04,  4.217095265909053E+04,
2459926.500000000, A.D. 2022-Dec-13 00:00:00.0000,  5.903313405833254E-01,  1.072774047828236E+04,  2.632175243094276E+01,  2.882996960204948E+02,  1.383412437068082E+02,  2.459926380039819E+06,  8.536468456810168E-03,  8.847673630402521E+01,  1.462490103527291E+02,  2.618638314572938E+04,  4.164502581317640E+04,  4.217200611955656E+04,
2459927.500000000, A.D. 2022-Dec-14 00:00:00.0000,  5.902667075159843E-01,  1.072957631593317E+04,  2.631872166601180E+01,  2.881498099589331E+02,  1.385952215262807E+02,  2.459927356249273E+06,  8.536297405354458E-03,  1.060213501110154E+02,  1.541787679128567E+02,  2.618673296203225E+04,  4.164388960813133E+04,  4.217285116778935E+04,
2459928.500000000, A.D. 2022-Dec-15 00:00:00.0000,  5.902268015438463E-01,  1.073071247080230E+04,  2.631640300464013E+01,  2.879986415089402E+02,  1.388476637422839E+02,  2.459928332455620E+06,  8.536188643234298E-03,  1.235684533128919E+02,  1.610630318540281E+02,  2.618695539686571E+04,  4.164319832292913E+04,  4.217338850463815E+04,
2459929.500000000, A.D. 2022-Dec-16 00:00:00.0000,  5.902106287493248E-01,  1.073121665688309E+04,  2.631511288549944E+01,  2.878457370458721E+02,  1.391013385997906E+02,  2.459929308661148E+06,  8.536092389710802E-03,  1.411159201842500E+02,  1.672973564696152E+02,  2.618715225368454E+04,  4.164308785048599E+04,  4.217386405446305E+04,
2459930.500000000, A.D. 2022-Dec-17 00:00:00.0000,  5.902268324233484E-01,  1.073084346883108E+04,  2.631495614658206E+01,  2.876915194429364E+02,  1.393560537815179E+02,  2.459930284870318E+06,  8.536031369045361E-03,  1.586609609077706E+02,  1.731415447136137E+02,  2.618727705450306E+04,  4.164371064017504E+04,  4.217416553850611E+04,
2459931.500000000, A.D. 2022-Dec-18 00:00:00.0000,  5.902690560991884E-01,  1.072978064709379E+04,  2.631558893542646E+01,  2.875372603712604E+02,  1.396126497628309E+02,  2.459931261086662E+06,  8.535980174104528E-03,  1.762006619157123E+02,  1.787870445270890E+02,  2.618738176067872E+04,  4.164498287426365E+04,  4.217441848003893E+04,
2459932.500000000, A.D. 2022-Dec-19 00:00:00.0000,  5.903285560215510E-01,  1.072826215891698E+04,  2.631650830234822E+01,  2.873829604228233E+02,  1.398727740137436E+02,  2.459932725442620E+06,  8.535932841904615E-03,  1.937350313621506E+02,  1.843958392750375E+02,  2.618747856753557E+04,  4.164669497615416E+04,  4.217465233942416E+04,
2459933.500000000, A.D. 2022-Dec-20 00:00:00.0000,  5.903979463458754E-01,  1.072642839975205E+04,  2.631716506896672E+01,  2.872306482804097E+02,  1.401344223539743E+02,  2.459933701676202E+06,  8.535952658794439E-03,  2.112625285074532E+02,  1.901244221912384E+02,  2.618743803665019E+04,  4.164844767354833E+04,  4.217455442763011E+04,
2459934.500000000, A.D. 2022-Dec-21 00:00:00.0000,  5.904489210699394E-01,  1.072509588785080E+04,  2.631727664174408E+01,  2.870808866634546E+02,  1.403965695323417E+02,  2.459934677919719E+06,  8.535949810884090E-03,  2.287831279683591E+02,  1.961490373840082E+02,  2.618744386138544E+04,  4.164979183492007E+04,  4.217456849863013E+04,
2459935.500000000, A.D. 2022-Dec-22 00:00:00.0000,  5.904738946045001E-01,  1.072443610992488E+04,  2.631613863565611E+01,  2.869345112589579E+02,  1.406573219363073E+02,  2.459935654166202E+06,  8.535956717478135E-03,  2.463013990964550E+02,  2.026968580153133E+02,  2.618742973556653E+04,  4.165042336120818E+04,  4.217453437443840E+04,
2459936.500000000, A.D. 2022-Dec-23 00:00:00.0000,  5.904645861082951E-01,  1.072466675302641E+04,  2.631349816976172E+01,  2.867909823851716E+02,  1.409158478969415E+02,  2.459936630411353E+06,  8.535972384123038E-03,  2.638205817468305E+02,  2.100955711568502E+02,  2.618739769318794E+04,  4.165012863334948E+04,  4.217445696867556E+04,
2459937.500000000, A.D. 2022-Dec-24 00:00:00.0000,  5.904228704801602E-01,  1.072573277176536E+04,  2.630939517236768E+01,  2.866495350783838E+02,  1.411710308090509E+02,  2.459937606649917E+06,  8.536003905400500E-03,  2.813445410226717E+02,  2.188764812410363E+02,  2.618733322424394E+04,  4.164893367672251E+04,  4.217430122920137E+04,
2459938.500000000, A.D. 2022-Dec-25 00:00:00.0000,  5.903598542642687E-01,  1.072732195670189E+04,  2.630414448756559E+01,  2.865088856533263E+02,  1.414227477035053E+02,  2.459938582877874E+06,  8.536076764171412E-03,  2.988761563585762E+02,  2.300136544561477E+02,  2.618718421124268E+04,  4.164704646578347E+04,  4.217394125496068E+04,
2459939.500000000, A.D. 2022-Dec-26 00:00:00.0000,  5.902911851424303E-01,  1.072893652310471E+04,  2.629809762383612E+01,  2.863673590241789E+02,  1.416724927251309E+02,  2.459939559093820E+06,  8.536295977703636E-03,  3.164161820596249E+02,  2.455832965099148E+02,  2.618673588176152E+04,  4.164453524041833E+04,  4.217285822097798E+04,
2459940.500000000, A.D. 2022-Dec-27 00:00:00.0000,  5.902203596362129E-01,  1.073010731992018E+04,  2.629134119717175E+01,  2.862219496395921E+02,  1.419245794500323E+02,  2.459940535299791E+06,  8.537112092229241E-03,  3.339626452958991E+02,  2.709432032154633E+02,  2.618506695548464E+04,  4.164002659104909E+04,  4.216882666067882E+04,
2459941.500000000, A.D. 2022-Dec-28 00:00:00.0000,  5.901288996881587E-01,  1.073098095966939E+04,  2.628635717045902E+01,  2.860645764587331E+02,  1.421835662202398E+02,  2.459941511499318E+06,  8.538927513442729E-03,  3.515162243909434E+02,  3.214996164662374E+02,  2.618135543468411E+04,  4.163172990969883E+04,  4.215986134479493E+04,
2459942.500000000, A.D. 2022-Dec-29 00:00:00.0000,  5.901671449768546E-01,  1.073170965831389E+04,  2.628920598587018E+01,  2.859163243728769E+02,  1.424330736763877E+02,  2.459942487696303E+06,  8.536862811725388E-03,  9.075021982101728E+00,  4.088161445384726E+01,  2.618557669737781E+04,  4.163944373644173E+04,  4.217005801071790E+04,
2459943.500000000, A.D. 2022-Dec-30 00:00:00.0000,  5.901528911086129E-01,  1.073156613134012E+04,  2.628513705625410E+01,  2.857679149454000E+02,  1.426826900071459E+02,  2.459943463895002E+06,  8.537479451131383E-03,  2.663242650356989E+01,  9.018486937207811E+01,  2.618431580588281E+04,  4.163706548042550E+04,  4.216701217972396E+04,
